NORAD_CAT_ID,OBJECT_NAME,OBJECT_TYPE,EPOCH,MEAN_MOTION,ECCENTRICITY,INCLINATION,RA_OF_ASC_NODE,ARG_OF_PERICENTER,MEAN_ANOMALY,BSTAR,MEAN_MOTION_DOT,MEAN_MOTION_DDOT,TLE_LINE0,TLE_LINE1,TLE_LINE2,SEMIMAJOR_AXIS,PERIOD,APOGEE,PERIGEE,DECAYED
51959.0,STARLINK-3704,PAYLOAD,2023-02-28 02:54:11,15.08842234,0.0001553,53.2178,312.2063,94.2308,265.8862,0.00056492,8.715e-05,0.0,0 STARLINK-3704,1 51959U 22025D   23059.12096277  .00008715  00000-0  56492-3 0  9993,2 51959  53.2178 312.2063 0001553  94.2308 265.8862 15.08842234 55389,6917.874,95.437,540.813,538.664,0.0
51959.0,STARLINK-3704,PAYLOAD,2023-02-28 21:58:50,15.08802187,0.0001868,53.2182,308.6348,119.9895,240.1282,0.00029704,4.438e-05,0.0,0 STARLINK-3704,1 51959U 22025D   23059.91586542  .00004438  00000-0  29704-3 0  9993,2 51959  53.2182 308.6348 0001868 119.9895 240.1282 15.08802187 54412,6917.996,95.44,541.153,538.569,0.0
51959.0,STARLINK-3704,PAYLOAD,2023-02-28 23:34:13,15.08808726,0.0001001,53.2169,308.3426,85.6937,274.417,0.00011763,1.583e-05,0.0,0 STARLINK-3704,1 51959U 22025D   23059.98210579  .00001583  00000-0  11763-3 0  9998,2 51959  53.2169 308.3426 0001001  85.6937 274.4170 15.08808726 55519,6917.976,95.44,540.533,539.148,0.0
51959.0,STARLINK-3704,PAYLOAD,2023-03-01 02:44:59,15.08861112,0.0001116,53.2174,307.7469,96.5624,263.5495,0.0021715,0.00034461,0.0,0 STARLINK-3704,1 51959U 22025D   23060.11457542  .00034461  00000-0  21715-2 0  9996,2 51959  53.2174 307.7469 0001116  96.5624 263.5495 15.08861112 55535,6917.816,95.436,540.453,538.909,0.0
51959.0,STARLINK-3704,PAYLOAD,2023-03-01 20:14:14,15.08847871,0.0001335,53.2178,304.4752,98.3972,261.7172,0.00098344,0.00015401,0.0,0 STARLINK-3704,1 51959U 22025D   23060.84321954  .00015401  00000-0  98344-3 0  9999,2 51959  53.2178 304.4752 0001335  98.3972 261.7172 15.08847871 55647,6917.856,95.437,540.645,538.798,0.0
51959.0,STARLINK-3704,PAYLOAD,2023-03-01 21:49:37,15.08853015,0.0001291,53.2171,304.1761,105.023,255.0905,0.00074242,0.00011552,0.0,0 STARLINK-3704,1 51959U 22025D   23060.90945792  .00011552  00000-0  74242-3 0  9992,2 51959  53.2171 304.1761 0001291 105.0230 255.0905 15.08853015 54568,6917.841,95.437,540.599,538.813,0.0
51959.0,STARLINK-3704,PAYLOAD,2023-03-02 20:05:09,15.08511989,0.0001696,53.2171,300.017,336.9027,23.1888,-0.0084846,-0.00131677,0.0,0 STARLINK-3704,1 51959U 22025D   23061.83691932 -.00131677  00000-0 -84846-2 0  9992,2 51959  53.2171 300.0170 0001696 336.9027  23.1888 15.08511989 54706,6918.883,95.458,541.922,539.575,0.0
51959.0,STARLINK-3704,PAYLOAD,2023-03-03 04:02:20,15.08234192,0.0001005,53.2169,298.5311,115.9943,244.1152,-0.012356,-0.00188667,0.0,0 STARLINK-3704,1 51959U 22025D   23062.16828709 -.00188667  00000-0 -12356-1 0  9990,2 51959  53.2169 298.5311 0001005 115.9943 244.1152 15.08234192 55840,6919.733,95.476,542.293,540.902,0.0
51959.0,STARLINK-3704,PAYLOAD,2023-03-03 21:32:25,15.07678942,0.0002423,53.217,295.2645,115.4003,244.7239,-0.0068896,-0.00104972,0.0,0 STARLINK-3704,1 51959U 22025D   23062.89751956 -.00104972  00000-0 -68896-2 0  9997,2 51959  53.2170 295.2645 0002423 115.4003 244.7239 15.07678942 55951,6921.432,95.511,544.974,541.619,0.0
51959.0,STARLINK-3704,PAYLOAD,2023-03-04 10:00:01,15.0669618,0.0001216,53.2158,292.9404,89.174,208.9333,-0.030356,-0.00429459,0.0,0 STARLINK-3704,1 51959U 22025D   23063.41668981 -.00429459  00000-0 -30356-1 0  9990,2 51959  53.2158 292.9404 0001216  89.1740 208.9333 15.06696180 56038,6924.441,95.573,547.148,545.464,0.0
51959.0,STARLINK-3704,PAYLOAD,2023-03-04 14:00:01,15.06555277,0.0001295,53.2156,292.1944,89.0217,33.4831,-0.032317,-0.00453892,0.0,0 STARLINK-3704,1 51959U 22025D   23063.58334491 -.00453892  00000-0 -32317-1 0  9991,2 51959  53.2156 292.1944 0001295  89.0217  33.4831 15.06555277  1307,6924.873,95.582,547.634,545.841,0.0
51959.0,STARLINK-3704,PAYLOAD,2023-03-04 22:00:00,15.06218078,0.0001299,53.2155,290.7054,79.1541,52.0125,-0.032428,-0.00451455,0.0,0 STARLINK-3704,1 51959U 22025D   23063.91667824 -.00451455  00000-0 -32428-1 0  9993,2 51959  53.2155 290.7054 0001299  79.1541  52.0125 15.06218078  1304,6925.906,95.604,548.671,546.872,0.0
51959.0,STARLINK-3704,PAYLOAD,2023-03-05 00:00:00,15.06122239,0.0001322,53.2157,290.3332,78.9479,144.3225,-0.029859,-0.00416655,0.0,0 STARLINK-3704,1 51959U 22025D   23064.00001157 -.00416655  00000-0 -29859-1 0  9992,2 51959  53.2157 290.3332 0001322  78.9479 144.3225 15.06122239 56124,6926.2,95.61,548.981,547.149,0.0
51959.0,STARLINK-3704,PAYLOAD,2023-03-05 14:00:01,15.05580733,0.0001269,53.2157,287.7245,87.9266,59.3637,-0.033465,-0.00461752,0.0,0 STARLINK-3704,1 51959U 22025D   23064.58334491 -.00461752  00000-0 -33465-1 0  9991,2 51959  53.2157 287.7245 0001269  87.9266  59.3637 15.05580733  1309,6927.861,95.644,550.605,548.846,0.0
51959.0,STARLINK-3704,PAYLOAD,2023-03-05 16:00:00,15.05514874,0.0001247,53.2158,287.3527,90.1082,149.0846,-0.035717,-0.00490263,0.0,0 STARLINK-3704,1 51959U 22025D   23064.66667824 -.00490263  00000-0 -35717-1 0  9990,2 51959  53.2158 287.3527 0001247  90.1082 149.0846 15.05514874 56220,6928.063,95.648,550.792,549.064,0.0
51959.0,STARLINK-3704,PAYLOAD,2023-03-05 22:00:00,15.05241832,0.0001284,53.2156,286.2377,77.7973,76.9811,-0.033152,-0.00449618,0.0,0 STARLINK-3704,1 51959U 22025D   23064.91667824 -.00449618  00000-0 -33152-1 0  9997,2 51959  53.2156 286.2377 0001284  77.7973  76.9811 15.05241832  1300,6928.9,95.666,551.655,549.876,0.0
51959.0,STARLINK-3704,PAYLOAD,2023-03-06 08:00:01,15.04821671,0.0001036,53.2157,284.3771,81.2647,172.3018,-0.0053993,-0.0007652,0.0,0 STARLINK-3704,1 51959U 22025D   23065.33334491 -.00076520  00000-0 -53993-2 0  9999,2 51959  53.2157 284.3771 0001036  81.2647 172.3018 15.04821671 56327,6930.19,95.692,552.773,551.337,0.0
51959.0,STARLINK-3704,PAYLOAD,2023-03-06 22:00:00,15.0477571,0.0001048,53.2156,281.7759,86.1009,89.2319,-0.0014144,-0.00020384,0.0,0 STARLINK-3704,1 51959U 22025D   23065.91667824 -.00020384  00000-0 -14144-2 0  9994,2 51959  53.2156 281.7759 0001048  86.1009  89.2319 15.04775710 56414,6930.331,95.695,552.923,551.47,0.0
51959.0,STARLINK-3704,PAYLOAD,2023-03-07 14:00:01,15.04789157,0.0001029,53.2156,278.8,106.194,82.562,0.0027819,0.00039623,0.0,0 STARLINK-3704,1 51959U 22025D   23066.58334491  .00039623  00000-0  27819-2 0  9996,2 51959  53.2156 278.8000 0001029 106.1940  82.5620 15.04789157 56518,6930.29,95.694,552.868,551.442,0.0
51959.0,STARLINK-3704,PAYLOAD,2023-03-07 22:00:00,15.04814152,9.83e-05,53.2153,277.3146,100.5594,94.9446,-0.006381,-0.00090191,0.0,0 STARLINK-3704,1 51959U 22025D   23066.91667824 -.00090191  00000-0 -63810-2 0  9992,2 51959  53.2153 277.3146 0000983 100.5594  94.9446 15.04814152 56563,6930.213,95.693,552.759,551.397,0.0
51959.0,STARLINK-3704,PAYLOAD,2023-03-08 18:00:00,15.04800243,9.98e-05,53.215,273.5962,112.2051,280.0464,-0.0035372,-0.00050381,0.0,0 STARLINK-3704,1 51959U 22025D   23067.75001157 -.00050381  00000-0 -35372-2 0  9995,2 51959  53.2150 273.5962 0000998 112.2051 280.0464 15.04800243 56685,6930.256,95.694,552.813,551.429,0.0
51959.0,STARLINK-3704,PAYLOAD,2023-03-08 22:00:00,15.0476964,9.85e-05,53.2149,272.8533,101.7941,113.8279,-0.00075669,-0.00011046,0.0,0 STARLINK-3704,1 51959U 22025D   23067.91667824 -.00011046  00000-0 -75669-3 0  9991,2 51959  53.2149 272.8533 0000985 101.7941 113.8279 15.04769640  1307,6930.35,95.696,552.898,551.532,0.0
51959.0,STARLINK-3704,PAYLOAD,2023-03-09 00:00:00,15.04744304,9.65e-05,53.2148,272.4817,99.1811,208.1242,0.002958,0.00042112,0.0,0 STARLINK-3704,1 51959U 22025D   23068.00001157  .00042112  00000-0  29580-2 0  9999,2 51959  53.2148 272.4817 0000965  99.1811 208.1242 15.04744304 56725,6930.428,95.697,552.961,551.624,0.0
51959.0,STARLINK-3704,PAYLOAD,2023-03-09 19:21:45,15.04789568,0.0001178,53.2147,268.8801,109.4497,250.6621,0.00070109,9.736e-05,0.0,0 STARLINK-3704,1 51959U 22025D   23068.80678160  .00009736  00000-0  70109-3 0  9990,2 51959  53.2147 268.8801 0001178 109.4497 250.6621 15.04789568 56845,6930.289,95.694,552.97,551.337,0.0
51959.0,STARLINK-3704,PAYLOAD,2023-03-09 20:57:24,15.04794552,0.0001004,53.2162,268.5858,98.2944,261.8161,0.00088888,0.00012425,0.0,0 STARLINK-3704,1 51959U 22025D   23068.87320013  .00012425  00000-0  88888-3 0  9990,2 51959  53.2162 268.5858 0001004  98.2944 261.8161 15.04794552 55763,6930.273,95.694,552.834,551.443,0.0
51959.0,STARLINK-3704,PAYLOAD,2023-03-10 06:31:16,15.04782946,0.0001589,53.2148,266.8068,86.16,273.9572,0.00041294,5.616e-05,0.0,0 STARLINK-3704,1 51959U 22025D   23069.27171580  .00005616  00000-0  41294-3 0  9992,2 51959  53.2148 266.8068 0001589  86.1600 273.9572 15.04782946 56916,6930.309,95.695,553.275,551.073,0.0
51959.0,STARLINK-3704,PAYLOAD,2023-03-10 19:16:25,15.04779531,9.76e-05,53.2151,264.4377,75.9082,284.2017,0.00018292,2.332e-05,0.0,0 STARLINK-3704,1 51959U 22025D   23069.80306802  .00002332  00000-0  18292-3 0  9992,2 51959  53.2151 264.4377 0000976  75.9082 284.2017 15.04779531 56999,6930.32,95.695,552.861,551.508,0.0
51959.0,STARLINK-3704,PAYLOAD,2023-03-11 12:48:29,15.04787152,9.68e-05,53.2146,261.178,69.7664,290.343,0.00051041,7.01e-05,0.0,0 STARLINK-3704,1 51959U 22025D   23070.53367493  .00007010  00000-0  51041-3 0  9994,2 51959  53.2146 261.1780 0000968  69.7664 290.3430 15.04787152 56011,6930.296,95.695,552.832,551.49,0.0
51959.0,STARLINK-3704,PAYLOAD,2023-03-11 15:59:46,15.04791167,9.59e-05,53.2142,260.5858,66.5545,293.5547,0.00063261,8.757e-05,0.0,0 STARLINK-3704,1 51959U 22025D   23070.66651116  .00008757  00000-0  63261-3 0  9992,2 51959  53.2142 260.5858 0000959  66.5545 293.5547 15.04791167 56036,6930.284,95.694,552.813,551.484,0.0
51959.0,STARLINK-3704,PAYLOAD,2023-03-11 19:11:03,15.04796549,9.69e-05,53.2139,259.9928,63.7238,296.3852,0.00085849,0.0001199,0.0,0 STARLINK-3704,1 51959U 22025D   23070.79934768  .00011990  00000-0  85849-3 0  9992,2 51959  53.2139 259.9928 0000969  63.7238 296.3852 15.04796549 57143,6930.267,95.694,552.804,551.461,0.0
